[{"OBJECT_NAME":"SENTINEL-3B","OBJECT_ID":"2018-039A","EPOCH":"2026-06-26T17:27:25.352064","MEAN_MOTION":14.2673725,"ECCENTRICITY":7.56e-5,"INCLINATION":98.6246,"RA_OF_ASC_NODE":245.1228,"ARG_OF_PERICENTER":107.4193,"MEAN_ANOMALY":252.707,"EPHEMERIS_TYPE":0,"CLASSIFICATION_TYPE":"U","NORAD_CAT_ID":43437,"ELEMENT_SET_NO":999,"REV_AT_EPOCH":42548,"BSTAR":5.5871e-5,"MEAN_MOTION_DOT":9.2e-7,"MEAN_MOTION_DDOT":0},{"OBJECT_NAME":"FENGYUN 2H","OBJECT_ID":"2018-050A","EPOCH":"2026-06-26T18:03:48.490848","MEAN_MOTION":1.00269785,"ECCENTRICITY":0.0001684,"INCLINATION":3.0563,"RA_OF_ASC_NODE":78.9679,"ARG_OF_PERICENTER":123.4572,"MEAN_ANOMALY":62.7379,"EPHEMERIS_TYPE":0,"CLASSIFICATION_TYPE":"U","NORAD_CAT_ID":43491,"ELEMENT_SET_NO":999,"REV_AT_EPOCH":2953,"BSTAR":0,"MEAN_MOTION_DOT":-1.21e-6,"MEAN_MOTION_DDOT":0},{"OBJECT_NAME":"METOP-C","OBJECT_ID":"2018-087A","EPOCH":"2026-06-26T17:04:00.196032","MEAN_MOTION":14.2151445,"ECCENTRICITY":0.0002044,"INCLINATION":98.6641,"RA_OF_ASC_NODE":237.1405,"ARG_OF_PERICENTER":117.4162,"MEAN_ANOMALY":242.7224,"EPHEMERIS_TYPE":0,"CLASSIFICATION_TYPE":"U","NORAD_CAT_ID":43689,"ELEMENT_SET_NO":999,"REV_AT_EPOCH":39618,"BSTAR":5.8166e-5,"MEAN_MOTION_DOT":8.4e-7,"MEAN_MOTION_DDOT":0},{"OBJECT_NAME":"GEO-KOMPSAT-2A","OBJECT_ID":"2018-100A","EPOCH":"2026-06-26T16:35:09.494304","MEAN_MOTION":1.00273003,"ECCENTRICITY":0.0002351,"INCLINATION":0.0442,"RA_OF_ASC_NODE":150.2493,"ARG_OF_PERICENTER":298.2576,"MEAN_ANOMALY":203.3582,"EPHEMERIS_TYPE":0,"CLASSIFICATION_TYPE":"U","NORAD_CAT_ID":43823,"ELEMENT_SET_NO":999,"REV_AT_EPOCH":2772,"BSTAR":0,"MEAN_MOTION_DOT":-3.32e-6,"MEAN_MOTION_DDOT":0},{"OBJECT_NAME":"METEOR-M2 2","OBJECT_ID":"2019-038A","EPOCH":"2026-06-26T17:28:10.219584","MEAN_MOTION":14.24368451,"ECCENTRICITY":0.0001667,"INCLINATION":98.9145,"RA_OF_ASC_NODE":165.1539,"ARG_OF_PERICENTER":34.6575,"MEAN_ANOMALY":325.4711,"EPHEMERIS_TYPE":0,"CLASSIFICATION_TYPE":"U","NORAD_CAT_ID":44387,"ELEMENT_SET_NO":999,"REV_AT_EPOCH":36265,"BSTAR":9.4203e-5,"MEAN_MOTION_DOT":1.72e-6,"MEAN_MOTION_DDOT":0},{"OBJECT_NAME":"ARKTIKA-M 1","OBJECT_ID":"2021-016A","EPOCH":"2026-06-24T11:15:18.372960","MEAN_MOTION":2.00620016,"ECCENTRICITY":0.7291,"INCLINATION":63.247,"RA_OF_ASC_NODE":56.572,"ARG_OF_PERICENTER":269.9787,"MEAN_ANOMALY":14.575,"EPHEMERIS_TYPE":0,"CLASSIFICATION_TYPE":"U","NORAD_CAT_ID":47719,"ELEMENT_SET_NO":999,"REV_AT_EPOCH":3893,"BSTAR":0,"MEAN_MOTION_DOT":-2.98e-6,"MEAN_MOTION_DDOT":0},{"OBJECT_NAME":"FENGYUN 3E","OBJECT_ID":"2021-062A","EPOCH":"2026-06-26T17:09:12.754944","MEAN_MOTION":14.19904342,"ECCENTRICITY":0.0002782,"INCLINATION":98.7494,"RA_OF_ASC_NODE":181.0164,"ARG_OF_PERICENTER":70.8106,"MEAN_ANOMALY":289.3371,"EPHEMERIS_TYPE":0,"CLASSIFICATION_TYPE":"U","NORAD_CAT_ID":49008,"ELEMENT_SET_NO":999,"REV_AT_EPOCH":25793,"BSTAR":6.5557e-6,"MEAN_MOTION_DOT":-3.0e-7,"MEAN_MOTION_DDOT":0},{"OBJECT_NAME":"GOES 18","OBJECT_ID":"2022-021A","EPOCH":"2026-06-26T17:02:06.910080","MEAN_MOTION":1.00273228,"ECCENTRICITY":6.31e-5,"INCLINATION":0.0071,"RA_OF_ASC_NODE":107.0971,"ARG_OF_PERICENTER":18.875,"MEAN_ANOMALY":267.3825,"EPHEMERIS_TYPE":0,"CLASSIFICATION_TYPE":"U","NORAD_CAT_ID":51850,"ELEMENT_SET_NO":999,"REV_AT_EPOCH":668,"BSTAR":0,"MEAN_MOTION_DOT":1.08e-6,"MEAN_MOTION_DDOT":0},{"OBJECT_NAME":"NOAA 21 (JPSS-2)","OBJECT_ID":"2022-150A","EPOCH":"2026-06-26T18:15:54.268992","MEAN_MOTION":14.19538096,"ECCENTRICITY":0.0002204,"INCLINATION":98.706,"RA_OF_ASC_NODE":116.3895,"ARG_OF_PERICENTER":138.6291,"MEAN_ANOMALY":221.5053,"EPHEMERIS_TYPE":0,"CLASSIFICATION_TYPE":"U","NORAD_CAT_ID":54234,"ELEMENT_SET_NO":999,"REV_AT_EPOCH":18790,"BSTAR":3.3243e-5,"MEAN_MOTION_DOT":2.7e-7,"MEAN_MOTION_DDOT":0},{"OBJECT_NAME":"METEOSAT-12 (MTG-I1)","OBJECT_ID":"2022-170C","EPOCH":"2026-06-26T17:41:06.273024","MEAN_MOTION":1.00275402,"ECCENTRICITY":0.0003658,"INCLINATION":0.7489,"RA_OF_ASC_NODE":24.4963,"ARG_OF_PERICENTER":71.8286,"MEAN_ANOMALY":83.4777,"EPHEMERIS_TYPE":0,"CLASSIFICATION_TYPE":"U","NORAD_CAT_ID":54743,"ELEMENT_SET_NO":999,"REV_AT_EPOCH":1307,"BSTAR":0,"MEAN_MOTION_DOT":4.0e-8,"MEAN_MOTION_DDOT":0},{"OBJECT_NAME":"TIANMU-1 03","OBJECT_ID":"2023-039A","EPOCH":"2026-06-26T18:00:13.647744","MEAN_MOTION":15.47544735,"ECCENTRICITY":0.0003956,"INCLINATION":97.5229,"RA_OF_ASC_NODE":352.0956,"ARG_OF_PERICENTER":76.4993,"MEAN_ANOMALY":283.6697,"EPHEMERIS_TYPE":0,"CLASSIFICATION_TYPE":"U","NORAD_CAT_ID":55973,"ELEMENT_SET_NO":999,"REV_AT_EPOCH":18231,"BSTAR":0.00028784,"MEAN_MOTION_DOT":0.00014723,"MEAN_MOTION_DDOT":0},{"OBJECT_NAME":"TIANMU-1 04","OBJECT_ID":"2023-039B","EPOCH":"2026-06-26T17:39:43.609824","MEAN_MOTION":15.48152872,"ECCENTRICITY":0.0004391,"INCLINATION":97.5168,"RA_OF_ASC_NODE":351.2349,"ARG_OF_PERICENTER":69.7968,"MEAN_ANOMALY":290.3754,"EPHEMERIS_TYPE":0,"CLASSIFICATION_TYPE":"U","NORAD_CAT_ID":55974,"ELEMENT_SET_NO":999,"REV_AT_EPOCH":18232,"BSTAR":0.00029572,"MEAN_MOTION_DOT":0.00015455,"MEAN_MOTION_DDOT":0},{"OBJECT_NAME":"TIANMU-1 05","OBJECT_ID":"2023-039C","EPOCH":"2026-06-26T17:33:12.108096","MEAN_MOTION":15.47469179,"ECCENTRICITY":0.0003948,"INCLINATION":97.5211,"RA_OF_ASC_NODE":351.6874,"ARG_OF_PERICENTER":91.6098,"MEAN_ANOMALY":268.5604,"EPHEMERIS_TYPE":0,"CLASSIFICATION_TYPE":"U","NORAD_CAT_ID":55975,"ELEMENT_SET_NO":999,"REV_AT_EPOCH":18229,"BSTAR":0.00029357,"MEAN_MOTION_DOT":0.0001498,"MEAN_MOTION_DDOT":0},{"OBJECT_NAME":"TIANMU-1 06","OBJECT_ID":"2023-039D","EPOCH":"2026-06-26T17:45:27.278784","MEAN_MOTION":15.48054486,"ECCENTRICITY":0.0004129,"INCLINATION":97.522,"RA_OF_ASC_NODE":352.3414,"ARG_OF_PERICENTER":86.7431,"MEAN_ANOMALY":273.4291,"EPHEMERIS_TYPE":0,"CLASSIFICATION_TYPE":"U","NORAD_CAT_ID":55976,"ELEMENT_SET_NO":999,"REV_AT_EPOCH":18232,"BSTAR":0.00029579,"MEAN_MOTION_DOT":0.00015405,"MEAN_MOTION_DDOT":0},{"OBJECT_NAME":"FENGYUN 3G","OBJECT_ID":"2023-055A","EPOCH":"2026-06-26T16:40:15.477312","MEAN_MOTION":15.5303449,"ECCENTRICITY":0.0007209,"INCLINATION":49.9932,"RA_OF_ASC_NODE":297.0202,"ARG_OF_PERICENTER":336.2941,"MEAN_ANOMALY":23.7694,"EPHEMERIS_TYPE":0,"CLASSIFICATION_TYPE":"U","NORAD_CAT_ID":56232,"ELEMENT_SET_NO":999,"REV_AT_EPOCH":18148,"BSTAR":0.00034312,"MEAN_MOTION_DOT":0.00021468,"MEAN_MOTION_DDOT":0},{"OBJECT_NAME":"METEOR-M2 3","OBJECT_ID":"2023-091A","EPOCH":"2026-06-26T17:23:08.515968","MEAN_MOTION":14.24047499,"ECCENTRICITY":0.0004812,"INCLINATION":98.6079,"RA_OF_ASC_NODE":232.5075,"ARG_OF_PERICENTER":131.9788,"MEAN_ANOMALY":228.1801,"EPHEMERIS_TYPE":0,"CLASSIFICATION_TYPE":"U","NORAD_CAT_ID":57166,"ELEMENT_SET_NO":999,"REV_AT_EPOCH":15587,"BSTAR":2.0631e-5,"MEAN_MOTION_DOT":4.0e-8,"MEAN_MOTION_DDOT":0},{"OBJECT_NAME":"TIANMU-1 07","OBJECT_ID":"2023-101A","EPOCH":"2026-06-26T17:09:45.346752","MEAN_MOTION":15.29912244,"ECCENTRICITY":0.0004342,"INCLINATION":97.2594,"RA_OF_ASC_NODE":228.1646,"ARG_OF_PERICENTER":102.0222,"MEAN_ANOMALY":258.1506,"EPHEMERIS_TYPE":0,"CLASSIFICATION_TYPE":"U","NORAD_CAT_ID":57399,"ELEMENT_SET_NO":999,"REV_AT_EPOCH":16310,"BSTAR":0.00020874,"MEAN_MOTION_DOT":5.972e-5,"MEAN_MOTION_DDOT":0}]
