SENTINEL-3B             
1 43437U 18039A   26177.72737676  .00000092  00000+0  55871-4 0  9990
2 43437  98.6246 245.1228 0000756 107.4193 252.7070 14.26737250425488
FENGYUN 2H              
1 43491U 18050A   26177.75264457 -.00000121  00000+0  00000+0 0  9991
2 43491   3.0563  78.9679 0001684 123.4572  62.7379  1.00269785 29530
METOP-C                 
1 43689U 18087A   26177.71111338  .00000084  00000+0  58166-4 0  9993
2 43689  98.6641 237.1405 0002044 117.4162 242.7224 14.21514450396187
GEO-KOMPSAT-2A          
1 43823U 18100A   26177.69108211 -.00000332  00000+0  00000+0 0  9998
2 43823   0.0442 150.2493 0002351 298.2576 203.3582  1.00273003 27723
METEOR-M2 2             
1 44387U 19038A   26177.72789606  .00000172  00000+0  94203-4 0  9996
2 44387  98.9145 165.1539 0001667  34.6575 325.4711 14.24368451362657
ARKTIKA-M 1             
1 47719U 21016A   26175.46896265 -.00000298  00000+0  00000+0 0  9993
2 47719  63.2470  56.5720 7291000 269.9787  14.5750  2.00620016 38936
FENGYUN 3E              
1 49008U 21062A   26177.71473096 -.00000030  00000+0  65557-5 0  9998
2 49008  98.7494 181.0164 0002782  70.8106 289.3371 14.19904342257932
GOES 18                 
1 51850U 22021A   26177.70980220  .00000108  00000+0  00000+0 0  9994
2 51850   0.0071 107.0971 0000631  18.8750 267.3825  1.00273228  6681
NOAA 21 (JPSS-2)        
1 54234U 22150A   26177.76104478  .00000027  00000+0  33243-4 0  9995
2 54234  98.7060 116.3895 0002204 138.6291 221.5053 14.19538096187900
METEOSAT-12 (MTG-I1)    
1 54743U 22170C   26177.73687816  .00000004  00000+0  00000+0 0  9996
2 54743   0.7489  24.4963 0003658  71.8286  83.4777  1.00275402 13073
TIANMU-1 03             
1 55973U 23039A   26177.75015796  .00014723  00000+0  28784-3 0  9997
2 55973  97.5229 352.0956 0003956  76.4993 283.6697 15.47544735182317
TIANMU-1 04             
1 55974U 23039B   26177.73592141  .00015455  00000+0  29572-3 0  9999
2 55974  97.5168 351.2349 0004391  69.7968 290.3754 15.48152872182326
TIANMU-1 05             
1 55975U 23039C   26177.73139014  .00014980  00000+0  29357-3 0  9999
2 55975  97.5211 351.6874 0003948  91.6098 268.5604 15.47469179182295
TIANMU-1 06             
1 55976U 23039D   26177.73989906  .00015405  00000+0  29579-3 0  9992
2 55976  97.5220 352.3414 0004129  86.7431 273.4291 15.48054486182325
FENGYUN 3G              
1 56232U 23055A   26177.69462358  .00021468  00000+0  34312-3 0  9995
2 56232  49.9932 297.0202 0007209 336.2941  23.7694 15.53034490181481
METEOR-M2 3             
1 57166U 23091A   26177.72440412  .00000004  00000+0  20631-4 0  9996
2 57166  98.6079 232.5075 0004812 131.9788 228.1801 14.24047499155874
TIANMU-1 07             
1 57399U 23101A   26177.71510818  .00005972  00000+0  20874-3 0  9990
2 57399  97.2594 228.1646 0004342 102.0222 258.1506 15.29912244163109
